{"type": "FeatureCollection", "features": [{"type": "Feature", "properties": {"norad_id": 24876, "name": "GPS BIIR-2  (PRN 13)", "group": "gnss", "lat": -35.84348640416607, "lon": 76.46729226435485, "alt_km": 20237.2926419171, "timestamp": "2025-12-15T15:53:20.097316+00:00", "meta": {"OBJECT_NAME": "GPS BIIR-2  (PRN 13)", "OBJECT_ID": "1997-035A", "EPOCH": "2025-12-14T05:28:55.073280", "MEAN_MOTION": 2.00563668, "ECCENTRICITY": 0.0096778, "INCLINATION": 55.8959, "RA_OF_ASC_NODE": 105.8106, "ARG_OF_PERICENTER": 56.9864, "MEAN_ANOMALY": 303.9153, "EPHEMERIS_TYPE": 0, "CLASSIFICATION_TYPE": "U", "NORAD_CAT_ID": 24876, "ELEMENT_SET_NO": 999, "REV_AT_EPOCH": 20824, "BSTAR": 0, "MEAN_MOTION_DOT": -5e-08, "MEAN_MOTION_DDOT": 0}, "tle": {"line1": "1 24876U 97035A   25348.22841520 -.00000005  00000+0  00000+0 0  9991", "line2": "2 24876  55.8959 105.8106 0096778  56.9864 303.9153  2.00563668208242"}}, "geometry": {"type": "Point", "coordinates": [76.46729226435485, -35.84348640416607]}}, {"type": "Feature", "properties": {"norad_id": 26360, "name": "GPS BIIR-4  (PRN 20)", "group": "gnss", "lat": 37.589096002162634, "lon": 59.29173716743096, "alt_km": 20277.647841728554, "timestamp": "2025-12-15T15:53:20.097359+00:00", "meta": {"OBJECT_NAME": "GPS BIIR-4  (PRN 20)", "OBJECT_ID": "2000-025A", "EPOCH": "2025-12-14T20:00:34.863840", "MEAN_MOTION": 2.00567621, "ECCENTRICITY": 0.00388872, "INCLINATION": 55.0464, "RA_OF_ASC_NODE": 26.7531, "ARG_OF_PERICENTER": 242.1971, "MEAN_ANOMALY": 287.7489, "EPHEMERIS_TYPE": 0, "CLASSIFICATION_TYPE": "U", "NORAD_CAT_ID": 26360, "ELEMENT_SET_NO": 999, "REV_AT_EPOCH": 18757, "BSTAR": 0, "MEAN_MOTION_DOT": -9.4e-07, "MEAN_MOTION_DDOT": 0}, "tle": {"line1": "1 26360U 00025A   25348.83373685 -.00000094  00000+0  00000+0 0  9991", "line2": "2 26360  55.0464  26.7531 0038887 242.1971 287.7489  2.00567621187579"}}, "geometry": {"type": "Point", "coordinates": [59.29173716743096, 37.589096002162634]}}, {"type": "Feature", "properties": {"norad_id": 26407, "name": "GPS BIIR-5  (PRN 22)", "group": "gnss", "lat": -48.57360845533115, "lon": 95.26952672774812, "alt_km": 19995.307213440257, "timestamp": "2025-12-15T15:53:20.097377+00:00", "meta": {"OBJECT_NAME": "GPS BIIR-5  (PRN 22)", "OBJECT_ID": "2000-040A", "EPOCH": "2025-12-14T13:17:49.888896", "MEAN_MOTION": 2.00568039, "ECCENTRICITY": 0.01259105, "INCLINATION": 54.8904, "RA_OF_ASC_NODE": 222.4968, "ARG_OF_PERICENTER": 301.8439, "MEAN_ANOMALY": 225.766, "EPHEMERIS_TYPE": 0, "CLASSIFICATION_TYPE": "U", "NORAD_CAT_ID": 26407, "ELEMENT_SET_NO": 999, "REV_AT_EPOCH": 18624, "BSTAR": 0, "MEAN_MOTION_DOT": 3.9e-07, "MEAN_MOTION_DDOT": 0}, "tle": {"line1": "1 26407U 00040A   25348.55404964  .00000039  00000+0  00000+0 0  9992", "line2": "2 26407  54.8904 222.4968 0125910 301.8439 225.7660  2.00568039186242"}}, "geometry": {"type": "Point", "coordinates": [95.26952672774812, -48.57360845533115]}}, {"type": "Feature", "properties": {"norad_id": 27663, "name": "GPS BIIR-8  (PRN 16)", "group": "gnss", "lat": 18.385216827568115, "lon": -124.23457283940226, "alt_km": 19835.418752271762, "timestamp": "2025-12-15T15:53:20.097392+00:00", "meta": {"OBJECT_NAME": "GPS BIIR-8  (PRN 16)", "OBJECT_ID": "2003-005A", "EPOCH": "2025-12-14T15:32:18.245760", "MEAN_MOTION": 2.00570858, "ECCENTRICITY": 0.01475389, "INCLINATION": 54.9229, "RA_OF_ASC_NODE": 222.3024, "ARG_OF_PERICENTER": 51.8264, "MEAN_ANOMALY": 319.116, "EPHEMERIS_TYPE": 0, "CLASSIFICATION_TYPE": "U", "NORAD_CAT_ID": 27663, "ELEMENT_SET_NO": 999, "REV_AT_EPOCH": 16761, "BSTAR": 0, "MEAN_MOTION_DOT": 4.1e-07, "MEAN_MOTION_DDOT": 0}, "tle": {"line1": "1 27663U 03005A   25348.64743340  .00000041  00000+0  00000+0 0  9998", "line2": "2 27663  54.9229 222.3024 0147538  51.8264 319.1160  2.00570858167613"}}, "geometry": {"type": "Point", "coordinates": [-124.23457283940226, 18.385216827568115]}}, {"type": "Feature", "properties": {"norad_id": 28190, "name": "GPS BIIR-11 (PRN 19)", "group": "gnss", "lat": -2.090460837123858, "lon": 104.54763281060897, "alt_km": 19904.375151921413, "timestamp": "2025-12-15T15:53:20.097405+00:00", "meta": {"OBJECT_NAME": "GPS BIIR-11 (PRN 19)", "OBJECT_ID": "2004-009A", "EPOCH": "2025-12-14T15:49:47.343936", "MEAN_MOTION": 2.00560762, "ECCENTRICITY": 0.01083648, "INCLINATION": 54.9839, "RA_OF_ASC_NODE": 283.1415, "ARG_OF_PERICENTER": 167.6892, "MEAN_ANOMALY": 10.6801, "EPHEMERIS_TYPE": 0, "CLASSIFICATION_TYPE": "U", "NORAD_CAT_ID": 28190, "ELEMENT_SET_NO": 999, "REV_AT_EPOCH": 15924, "BSTAR": 0, "MEAN_MOTION_DOT": -7.9e-07, "MEAN_MOTION_DDOT": 0}, "tle": {"line1": "1 28190U 04009A   25348.65957574 -.00000079  00000+0  00000+0 0  9998", "line2": "2 28190  54.9839 283.1415 0108364 167.6892  10.6801  2.00560762159240"}}, "geometry": {"type": "Point", "coordinates": [104.54763281060897, -2.090460837123858]}}, {"type": "Feature", "properties": {"norad_id": 28474, "name": "GPS BIIR-13 (PRN 02)", "group": "gnss", "lat": -45.69225075540788, "lon": -162.37706434077336, "alt_km": 20014.77127416393, "timestamp": "2025-12-15T15:53:20.097417+00:00", "meta": {"OBJECT_NAME": "GPS BIIR-13 (PRN 02)", "OBJECT_ID": "2004-045A", "EPOCH": "2025-12-12T12:01:27.782400", "MEAN_MOTION": 2.00569519, "ECCENTRICITY": 0.0170757, "INCLINATION": 55.2408, "RA_OF_ASC_NODE": 332.4152, "ARG_OF_PERICENTER": 309.2412, "MEAN_ANOMALY": 170.6572, "EPHEMERIS_TYPE": 0, "CLASSIFICATION_TYPE": "U", "NORAD_CAT_ID": 28474, "ELEMENT_SET_NO": 999, "REV_AT_EPOCH": 15468, "BSTAR": 0, "MEAN_MOTION_DOT": -8.8e-07, "MEAN_MOTION_DDOT": 0}, "tle": {"line1": "1 28474U 04045A   25346.50101600 -.00000088  00000+0  00000+0 0  9996", "line2": "2 28474  55.2408 332.4152 0170757 309.2412 170.6572  2.00569519154688"}}, "geometry": {"type": "Point", "coordinates": [-162.37706434077336, -45.69225075540788]}}, {"type": "Feature", "properties": {"norad_id": 28874, "name": "GPS BIIRM-1 (PRN 17)", "group": "gnss", "lat": -16.200856908520862, "lon": 112.28325834249611, "alt_km": 20201.7991739639, "timestamp": "2025-12-15T15:53:20.097430+00:00", "meta": {"OBJECT_NAME": "GPS BIIRM-1 (PRN 17)", "OBJECT_ID": "2005-038A", "EPOCH": "2025-12-14T21:27:36.248256", "MEAN_MOTION": 2.00578318, "ECCENTRICITY": 0.01315823, "INCLINATION": 55.03, "RA_OF_ASC_NODE": 280.6141, "ARG_OF_PERICENTER": 293.5769, "MEAN_ANOMALY": 73.3073, "EPHEMERIS_TYPE": 0, "CLASSIFICATION_TYPE": "U", "NORAD_CAT_ID": 28874, "ELEMENT_SET_NO": 999, "REV_AT_EPOCH": 14814, "BSTAR": 0, "MEAN_MOTION_DOT": -7.5e-07, "MEAN_MOTION_DDOT": 0}, "tle": {"line1": "1 28874U 05038A   25348.89416954 -.00000075  00000+0  00000+0 0  9994", "line2": "2 28874  55.0300 280.6141 0131582 293.5769  73.3073  2.00578318148142"}}, "geometry": {"type": "Point", "coordinates": [112.28325834249611, -16.200856908520862]}}, {"type": "Feature", "properties": {"norad_id": 28899, "name": "INMARSAT 4-F2 (SOUTHPAN/PRN 122)", "group": "gnss", "lat": 4.331218762994091, "lon": 106.2994854662056, "alt_km": 35796.31285630594, "timestamp": "2025-12-15T15:53:20.097444+00:00", "meta": {"OBJECT_NAME": "INMARSAT 4-F2 (SOUTHPAN/PRN 122)", "OBJECT_ID": "2005-044A", "EPOCH": "2025-12-14T22:39:45.580320", "MEAN_MOTION": 1.00271557, "ECCENTRICITY": 0.00026623, "INCLINATION": 4.8554, "RA_OF_ASC_NODE": 43.6975, "ARG_OF_PERICENTER": 223.7202, "MEAN_ANOMALY": 299.8824, "EPHEMERIS_TYPE": 0, "CLASSIFICATION_TYPE": "U", "NORAD_CAT_ID": 28899, "ELEMENT_SET_NO": 999, "REV_AT_EPOCH": 7367, "BSTAR": 0, "MEAN_MOTION_DOT": -2.44e-06, "MEAN_MOTION_DDOT": 0}, "tle": {"line1": "1 28899U 05044A   25348.94427755 -.00000244  00000+0  00000+0 0  9993", "line2": "2 28899   4.8554  43.6975 0002662 223.7202 299.8824  1.00271557 73675"}}, "geometry": {"type": "Point", "coordinates": [106.2994854662056, 4.331218762994091]}}, {"type": "Feature", "properties": {"norad_id": 29486, "name": "GPS BIIRM-2 (PRN 31)", "group": "gnss", "lat": 51.91308307762643, "lon": -86.14869907964022, "alt_km": 20004.161626606434, "timestamp": "2025-12-15T15:53:20.097457+00:00", "meta": {"OBJECT_NAME": "GPS BIIRM-2 (PRN 31)", "OBJECT_ID": "2006-042A", "EPOCH": "2025-12-14T18:28:39.630432", "MEAN_MOTION": 2.00554112, "ECCENTRICITY": 0.01073383, "INCLINATION": 54.6944, "RA_OF_ASC_NODE": 158.6601, "ARG_OF_PERICENTER": 52.0063, "MEAN_ANOMALY": 128.102, "EPHEMERIS_TYPE": 0, "CLASSIFICATION_TYPE": "U", "NORAD_CAT_ID": 29486, "ELEMENT_SET_NO": 999, "REV_AT_EPOCH": 14069, "BSTAR": 0, "MEAN_MOTION_DOT": 1e-06, "MEAN_MOTION_DDOT": 0}, "tle": {"line1": "1 29486U 06042A   25348.76990313  .00000100  00000+0  00000+0 0  9990", "line2": "2 29486  54.6944 158.6601 0107338  52.0063 128.1020  2.00554112140692"}}, "geometry": {"type": "Point", "coordinates": [-86.14869907964022, 51.91308307762643]}}, {"type": "Feature", "properties": {"norad_id": 29601, "name": "GPS BIIRM-3 (PRN 12)", "group": "gnss", "lat": 13.815401451707034, "lon": 31.36535848811154, "alt_km": 20119.888186805703, "timestamp": "2025-12-15T15:53:20.097484+00:00", "meta": {"OBJECT_NAME": "GPS BIIRM-3 (PRN 12)", "OBJECT_ID": "2006-052A", "EPOCH": "2025-12-11T22:46:47.068032", "MEAN_MOTION": 2.00573524, "ECCENTRICITY": 0.00877389, "INCLINATION": 54.9707, "RA_OF_ASC_NODE": 221.4296, "ARG_OF_PERICENTER": 87.4221, "MEAN_ANOMALY": 273.6564, "EPHEMERIS_TYPE": 0, "CLASSIFICATION_TYPE": "U", "NORAD_CAT_ID": 29601, "ELEMENT_SET_NO": 999, "REV_AT_EPOCH": 13965, "BSTAR": 0, "MEAN_MOTION_DOT": 9e-08, "MEAN_MOTION_DDOT": 0}, "tle": {"line1": "1 29601U 06052A   25345.94915588  .00000009  00000+0  00000+0 0  9996", "line2": "2 29601  54.9707 221.4296 0087738  87.4221 273.6564  2.00573524139650"}}, "geometry": {"type": "Point", "coordinates": [31.36535848811154, 13.815401451707034]}}]}